NORAD_CAT_ID,OBJECT_NAME,OBJECT_TYPE,EPOCH,MEAN_MOTION,ECCENTRICITY,INCLINATION,RA_OF_ASC_NODE,ARG_OF_PERICENTER,MEAN_ANOMALY,BSTAR,MEAN_MOTION_DOT,MEAN_MOTION_DDOT,TLE_LINE0,TLE_LINE1,TLE_LINE2,SEMIMAJOR_AXIS,PERIOD,APOGEE,PERIGEE,DECAYED
52587.0,STARLINK-3867,PAYLOAD,2024-07-21 10:03:06,15.08837102,0.0001597,53.2174,275.743,101.3133,258.8038,3.2737e-05,2.33e-06,0.0,0 STARLINK-3867,1 52587U 22051BD  24203.41882814  .00000233  00000-0  32737-4 0  9998,2 52587  53.2174 275.7430 0001597 101.3133 258.8038 15.08837102121646,6917.889,95.438,540.859,538.649,0.0
52587.0,STARLINK-3867,PAYLOAD,2024-07-22 09:53:51,15.08879825,0.0001836,53.2166,271.2808,91.2767,268.8436,-0.0013059,-0.00021034,0.0,0 STARLINK-3867,1 52587U 22051BD  24204.41240138 -.00021034  00000-0 -13059-2 0  9994,2 52587  53.2166 271.2808 0001836  91.2767 268.8436 15.08879825121790,6917.759,95.435,540.894,538.354,0.0
52587.0,STARLINK-3867,PAYLOAD,2024-07-22 14:40:03,15.08839188,0.00014,53.2156,270.3868,103.5719,256.5429,9.4559e-05,1.217e-05,0.0,0 STARLINK-3867,1 52587U 22051BD  24204.61115004  .00001217  00000-0  94559-4 0  9994,2 52587  53.2156 270.3868 0001400 103.5719 256.5429 15.08839188121756,6917.883,95.438,540.716,538.779,0.0
52587.0,STARLINK-3867,PAYLOAD,2024-07-23 11:20:04,15.08839316,0.0001219,53.2153,266.5234,96.7172,263.3959,0.00015503,2.18e-05,0.0,0 STARLINK-3867,1 52587U 22051BD  24205.47227105  .00002180  00000-0  15503-3 0  9996,2 52587  53.2153 266.5234 0001219  96.7172 263.3959 15.08839316121882,6917.882,95.438,540.591,538.904,0.0
52587.0,STARLINK-3867,PAYLOAD,2024-07-24 04:49:18,15.08834666,0.0001128,53.2151,263.2528,91.6908,268.4213,0.00022591,3.309e-05,0.0,0 STARLINK-3867,1 52587U 22051BD  24206.20091277  .00003309  00000-0  22591-3 0  9996,2 52587  53.2151 263.2528 0001128  91.6908 268.4213 15.08834666122063,6917.897,95.438,540.542,538.981,0.0
52587.0,STARLINK-3867,PAYLOAD,2024-07-24 08:00:05,15.08837513,0.0001025,53.2149,262.6577,86.2684,273.8426,6.6223e-05,7.66e-06,0.0,0 STARLINK-3867,1 52587U 22051BD  24206.33339156  .00000766  00000-0  66223-4 0  9996,2 52587  53.2149 262.6577 0001025  86.2684 273.8426 15.08837513122019,6917.888,95.438,540.462,539.044,0.0
52587.0,STARLINK-3867,PAYLOAD,2024-07-25 12:37:01,15.0884329,0.0001156,53.2158,257.3062,93.6793,266.4331,0.00013652,1.886e-05,0.0,0 STARLINK-3867,1 52587U 22051BD  24207.52571013  .00001886  00000-0  13652-3 0  9999,2 52587  53.2158 257.3062 0001156  93.6793 266.4331 15.08843290122266,6917.87,95.437,540.535,538.936,0.0
52587.0,STARLINK-3867,PAYLOAD,2024-07-26 09:17:01,15.08842637,0.0001624,53.2185,253.4354,94.2457,265.872,0.00014081,1.954e-05,0.0,0 STARLINK-3867,1 52587U 22051BD  24208.38682857  .00001954  00000-0  14081-3 0  9996,2 52587  53.2185 253.4354 0001624  94.2457 265.8720 15.08842637122327,6917.872,95.437,540.861,538.614,0.0
52587.0,STARLINK-3867,PAYLOAD,2024-07-26 20:24:43,15.08852672,0.0001236,53.2152,251.3579,94.345,265.7683,0.00012337,1.677e-05,0.0,0 STARLINK-3867,1 52587U 22051BD  24208.85050110  .00001677  00000-0  12337-3 0  9993,2 52587  53.2152 251.3579 0001236  94.3450 265.7683 15.08852672122462,6917.842,95.437,540.562,538.852,0.0
52587.0,STARLINK-3867,PAYLOAD,2024-07-27 09:07:49,15.08837006,0.0001481,53.2168,248.9756,106.75,253.3655,-1.4303e-05,-5.16e-06,0.0,0 STARLINK-3867,1 52587U 22051BD  24209.38043350 -.00000516  00000-0 -14303-4 0  9999,2 52587  53.2168 248.9756 0001481 106.7500 253.3655 15.08837006122549,6917.89,95.438,540.779,538.73,0.0
52587.0,STARLINK-3867,PAYLOAD,2024-07-27 12:18:35,15.08835395,0.0001706,53.2184,248.3807,104.8361,255.282,-4.1899e-05,-9.55e-06,0.0,0 STARLINK-3867,1 52587U 22051BD  24209.51291559 -.00000955  00000-0 -41899-4 0  9997,2 52587  53.2184 248.3807 0001706 104.8361 255.2820 15.08835395122490,6917.894,95.438,540.94,538.579,0.0
52587.0,STARLINK-3867,PAYLOAD,2024-07-28 05:47:49,15.08841648,0.0001323,53.2156,245.1122,100.2202,259.8939,8.405e-05,1.05e-05,0.0,0 STARLINK-3867,1 52587U 22051BD  24210.24154794  .00001050  00000-0  84050-4 0  9999,2 52587  53.2156 245.1122 0001323 100.2202 259.8939 15.08841648122672,6917.875,95.437,540.656,538.825,0.0
52587.0,STARLINK-3867,PAYLOAD,2024-07-28 12:09:22,15.08846237,0.000133,53.2155,243.9221,97.0029,263.1114,0.00012762,1.744e-05,0.0,0 STARLINK-3867,1 52587U 22051BD  24210.50650651  .00001744  00000-0  12762-3 0  9991,2 52587  53.2155 243.9221 0001330  97.0029 263.1114 15.08846237122644,6917.861,95.437,540.646,538.806,0.0
52587.0,STARLINK-3867,PAYLOAD,2024-07-29 05:38:37,15.08836917,0.0001338,53.2153,240.6518,96.1587,263.9558,0.00016197,2.291e-05,0.0,0 STARLINK-3867,1 52587U 22051BD  24211.23515326  .00002291  00000-0  16197-3 0  9995,2 52587  53.2153 240.6518 0001338  96.1587 263.9558 15.08836917122826,6917.89,95.438,540.68,538.829,0.0
52587.0,STARLINK-3867,PAYLOAD,2024-07-29 08:49:23,15.08836545,0.0001341,53.2151,240.0577,89.475,270.6396,0.00016052,2.267e-05,0.0,0 STARLINK-3867,1 52587U 22051BD  24211.36763453  .00002267  00000-0  16052-3 0  9998,2 52587  53.2151 240.0577 0001341  89.4750 270.6396 15.08836545122770,6917.891,95.438,540.684,538.828,0.0
52587.0,STARLINK-3867,PAYLOAD,2024-07-30 11:50:56,15.08842504,0.0001305,53.2149,235.0026,85.1616,274.9525,7.9656e-05,9.8e-06,0.0,0 STARLINK-3867,1 52587U 22051BD  24212.49371305  .00000980  00000-0  79656-4 0  9994,2 52587  53.2149 235.0026 0001305  85.1616 274.9525 15.08842504123015,6917.873,95.437,540.641,538.835,0.0
52587.0,STARLINK-3867,PAYLOAD,2024-07-30 18:12:29,15.08846037,0.0001318,53.2153,233.8134,85.4894,274.6249,0.00013501,1.862e-05,0.0,0 STARLINK-3867,1 52587U 22051BD  24212.75867097  .00001862  00000-0  13501-3 0  9997,2 52587  53.2153 233.8134 0001318  85.4894 274.6249 15.08846037122981,6917.862,95.437,540.639,538.815,0.0
52587.0,STARLINK-3867,PAYLOAD,2024-07-31 11:41:43,15.08841735,0.0001435,53.2155,230.5427,86.2118,273.9038,0.00013857,1.918e-05,0.0,0 STARLINK-3867,1 52587U 22051BD  24213.48731353  .00001918  00000-0  13857-3 0  9999,2 52587  53.2155 230.5427 0001435  86.2118 273.9038 15.08841735123091,6917.875,95.437,540.733,538.747,0.0
52587.0,STARLINK-3867,PAYLOAD,2024-08-01 05:10:58,15.08844225,0.0001433,53.2156,227.2717,88.5574,271.5583,0.00011521,1.546e-05,0.0,0 STARLINK-3867,1 52587U 22051BD  24214.21595225  .00001546  00000-0  11521-3 0  9990,2 52587  53.2156 227.2717 0001433  88.5574 271.5583 15.08844225123272,6917.867,95.437,540.724,538.741,0.0
52587.0,STARLINK-3867,PAYLOAD,2024-08-01 11:32:30,15.08843717,0.0001413,53.2152,226.082,87.0573,273.0581,8.8458e-05,1.12e-05,0.0,0 STARLINK-3867,1 52587U 22051BD  24214.48091152  .00001120  00000-0  88458-4 0  9991,2 52587  53.2152 226.0820 0001413  87.0573 273.0581 15.08843717123248,6917.869,95.437,540.712,538.757,0.0
52587.0,STARLINK-3867,PAYLOAD,2024-08-01 17:54:03,15.0884386,0.0001414,53.2151,224.8925,86.1913,273.9241,7.0128e-05,8.28e-06,0.0,0 STARLINK-3867,1 52587U 22051BD  24214.74587102  .00000828  00000-0  70128-4 0  9994,2 52587  53.2151 224.8925 0001414  86.1913 273.9241 15.08843860123283,6917.869,95.437,540.712,538.755,0.0
52587.0,STARLINK-3867,PAYLOAD,2024-08-02 05:01:45,15.08837222,0.0001397,53.2147,222.8103,85.8568,274.2584,1.7704e-05,-6e-08,0.0,0 STARLINK-3867,1 52587U 22051BD  24215.20955548 -.00000006  00000-0  17704-4 0  9999,2 52587  53.2147 222.8103 0001397  85.8568 274.2584 15.08837222123421,6917.889,95.438,540.72,538.787,0.0
52587.0,STARLINK-3867,PAYLOAD,2024-08-02 08:12:31,15.08839834,0.0001386,53.2159,222.2155,86.369,273.7461,5.107e-05,5.25e-06,0.0,0 STARLINK-3867,1 52587U 22051BD  24215.34203694  .00000525  00000-0  51070-4 0  9991,2 52587  53.2159 222.2155 0001386  86.3690 273.7461 15.08839834123378,6917.881,95.438,540.705,538.787,0.0
52587.0,STARLINK-3867,PAYLOAD,2024-08-02 17:44:50,15.08842866,0.0001413,53.2161,220.4314,86.3823,273.7331,7.7558e-05,9.47e-06,0.0,0 STARLINK-3867,1 52587U 22051BD  24215.73947454  .00000947  00000-0  77558-4 0  9990,2 52587  53.2161 220.4314 0001413  86.3823 273.7331 15.08842866123439,6917.872,95.437,540.714,538.759,0.0
52587.0,STARLINK-3867,PAYLOAD,2024-08-03 09:38:41,15.0884364,0.0001392,53.2161,217.4565,92.0464,268.0687,7.8027e-05,9.54e-06,0.0,0 STARLINK-3867,1 52587U 22051BD  24216.40187286  .00000954  00000-0  78027-4 0  9994,2 52587  53.2161 217.4565 0001392  92.0464 268.0687 15.08843640123605,6917.869,95.437,540.697,538.771,0.0
52587.0,STARLINK-3867,PAYLOAD,2024-08-03 17:35:37,15.08845303,0.0001387,53.2162,215.9696,92.497,267.6181,0.00010471,1.379e-05,0.0,0 STARLINK-3867,1 52587U 22051BD  24216.73307057  .00001379  00000-0  10471-3 0  9990,2 52587  53.2162 215.9696 0001387  92.4970 267.6181 15.08845303123583,6917.864,95.437,540.689,538.77,0.0
52587.0,STARLINK-3867,PAYLOAD,2024-08-04 04:43:19,15.0883808,0.0001456,53.2164,213.8899,89.4863,270.6296,9.4726e-05,1.22e-05,0.0,0 STARLINK-3867,1 52587U 22051BD  24217.19675607  .00001220  00000-0  94726-4 0  9991,2 52587  53.2164 213.8899 0001456  89.4863 270.6296 15.08838080123722,6917.886,95.438,540.759,538.744,0.0
52587.0,STARLINK-3867,PAYLOAD,2024-08-04 06:18:42,15.08839905,0.0001433,53.2161,213.5922,91.6152,268.5004,0.00011338,1.517e-05,0.0,0 STARLINK-3867,1 52587U 22051BD  24217.26299443  .00001517  00000-0  11338-3 0  9995,2 52587  53.2161 213.5922 0001433  91.6152 268.5004 15.08839905123667,6917.881,95.438,540.737,538.754,0.0
52587.0,STARLINK-3867,PAYLOAD,2024-08-05 06:09:29,15.0884415,0.0001456,53.2167,209.1313,94.3266,265.7892,7.4069e-05,8.91e-06,0.0,0 STARLINK-3867,1 52587U 22051BD  24218.25659168  .00000891  00000-0  74069-4 0  9994,2 52587  53.2167 209.1313 0001456  94.3266 265.7892 15.08844150123885,6917.868,95.437,540.74,538.725,0.0
52587.0,STARLINK-3867,PAYLOAD,2024-08-06 06:00:17,15.08830035,0.0001396,53.2165,204.6696,96.7912,263.3239,-1.8702e-05,-5.85e-06,0.0,0 STARLINK-3867,1 52587U 22051BD  24219.25020289 -.00000585  00000-0 -18702-4 0  9995,2 52587  53.2165 204.6696 0001396  96.7912 263.3239 15.08830035124038,6917.911,95.438,540.742,538.81,0.0
